start=new Date('2021-11-05T00:00:00.000Z').valueOf();
sats=[{"MEAN_MOTION_DOT":"0.00002591","MEAN_ANOMALY":"284.4980","NORAD_CAT_ID":"44752","COUNTRY_CODE":"US","PERIOD":"95.592","INCLINATION":"53.0521","SITE":"AFETR","PERIAPSIS":"546.063","ELEMENT_SET_NO":"999","MEAN_MOTION_DDOT":"0.0000000000000","OBJECT_NAME":"STARLINK-1047","RCS_SIZE":"LARGE","ARG_OF_PERICENTER":"75.6191","EPOCH":"2021-11-04T21:32:45.455712","TLE_LINE2":"2 44752  53.0521 125.5079 0001638  75.6191 284.4980 15.06405329109455","SEMIMAJOR_AXIS":"6925.332","APOAPSIS":"548.332","LAUNCH_DATE":"2019-11-11","MEAN_MOTION":"15.06405329","OBJECT_ID":"2019-074AR","DECAY_DATE":null,"MEAN_ELEMENT_THEORY":"SGP4","ECCENTRICITY":"0.00016380","FILE":"3202404","GP_ID":"188952357","OBJECT_TYPE":"PAYLOAD","TLE_LINE1":"1 44752U 19074AR  21308.89774833  .00002591  00000-0  19278-3 0  9993","EPHEMERIS_TYPE":"0","REV_AT_EPOCH":"10945","CENTER_NAME":"EARTH","CLASSIFICATION_TYPE":"U","RA_OF_ASC_NODE":"125.5079","BSTAR":"0.00019278000000","TIME_SYSTEM":"UTC","REF_FRAME":"TEME"},{"SITE":"AFETR","PERIAPSIS":"546.104","EPOCH":"2021-11-04T16:54:06.702336","ARG_OF_PERICENTER":"86.7274","SEMIMAJOR_AXIS":"6925.305","TLE_LINE2":"2 44753  53.0535 106.3954 0001539  86.7274 273.3891 15.06414279109705","ELEMENT_SET_NO":"999","MEAN_MOTION_DDOT":"0.0000000000000","OBJECT_NAME":"STARLINK-1048","RCS_SIZE":"LARGE","APOAPSIS":"548.236","MEAN_MOTION":"15.06414279","LAUNCH_DATE":"2019-11-11","MEAN_ANOMALY":"273.3891","NORAD_CAT_ID":"44753","MEAN_MOTION_DOT":"0.00007451","COUNTRY_CODE":"US","PERIOD":"95.591","INCLINATION":"53.0535","TLE_LINE1":"1 44753U 19074AS  21308.70424424  .00007451  00000-0  51836-3 0  9998","CENTER_NAME":"EARTH","REV_AT_EPOCH":"10970","EPHEMERIS_TYPE":"0","RA_OF_ASC_NODE":"106.3954","BSTAR":"0.00051836000000","CLASSIFICATION_TYPE":"U","TIME_SYSTEM":"UTC","REF_FRAME":"TEME","DECAY_DATE":null,"MEAN_ELEMENT_THEORY":"SGP4","ECCENTRICITY":"0.00015390","OBJECT_ID":"2019-074AS","FILE":"3202404","GP_ID":"188953108","OBJECT_TYPE":"PAYLOAD"},{"PERIOD":"95.592","INCLINATION":"53.0538","MEAN_MOTION_DOT":"0.00001358","MEAN_ANOMALY":"275.3053","NORAD_CAT_ID":"44754","COUNTRY_CODE":"US","APOAPSIS":"548.284","LAUNCH_DATE":"2019-11-11","MEAN_MOTION":"15.06408332","SITE":"AFETR","PERIAPSIS":"546.092","MEAN_MOTION_DDOT":"0.0000000000000","OBJECT_NAME":"STARLINK-1049","ELEMENT_SET_NO":"999","RCS_SIZE":"LARGE","EPOCH":"2021-11-04T21:46:01.737984","ARG_OF_PERICENTER":"84.8116","SEMIMAJOR_AXIS":"6925.323","TLE_LINE2":"2 44754  53.0538 105.4774 0001582  84.8116 275.3053 15.06408332109739","FILE":"3202404","GP_ID":"188952866","OBJECT_TYPE":"PAYLOAD","OBJECT_ID":"2019-074AT","MEAN_ELEMENT_THEORY":"SGP4","DECAY_DATE":null,"ECCENTRICITY":"0.00015820","CLASSIFICATION_TYPE":"U","RA_OF_ASC_NODE":"105.4774","BSTAR":"0.00011003000000","REF_FRAME":"TEME","TIME_SYSTEM":"UTC","TLE_LINE1":"1 44754U 19074AT  21308.90696456  .00001358  00000-0  11003-3 0  9999","EPHEMERIS_TYPE":"0","CENTER_NAME":"EARTH","REV_AT_EPOCH":"10973"},{"PERIAPSIS":"546.063","SITE":"AFETR","RCS_SIZE":"LARGE","MEAN_MOTION_DDOT":"0.0000000000000","ELEMENT_SET_NO":"999","OBJECT_NAME":"STARLINK-1050","TLE_LINE2":"2 44755  53.0529 148.2585 0001734  82.8343 277.2843 15.06383532109635","SEMIMAJOR_AXIS":"6925.399","EPOCH":"2021-11-04T07:03:35.929440","ARG_OF_PERICENTER":"82.8343","APOAPSIS":"548.465","LAUNCH_DATE":"2019-11-11","MEAN_MOTION":"15.06383532","MEAN_MOTION_DOT":"-0.00000136","NORAD_CAT_ID":"44755","MEAN_ANOMALY":"277.2843","COUNTRY_CODE":"US","PERIOD":"95.593","INCLINATION":"53.0529","TLE_LINE1":"1 44755U 19074AU  21308.29416585 -.00000136  00000-0  97693-5 0  9990","EPHEMERIS_TYPE":"0","REV_AT_EPOCH":"10963","CENTER_NAME":"EARTH","CLASSIFICATION_TYPE":"U","BSTAR":"0.00000976930000","RA_OF_ASC_NODE":"148.2585","REF_FRAME":"TEME","TIME_SYSTEM":"UTC","OBJECT_ID":"2019-074AU","ECCENTRICITY":"0.00017340","DECAY_DATE":null,"MEAN_ELEMENT_THEORY":"SGP4","FILE":"3200778","OBJECT_TYPE":"PAYLOAD","GP_ID":"188892913"},{"EPHEMERIS_TYPE":"0","CENTER_NAME":"EARTH","REV_AT_EPOCH":"11082","TLE_LINE1":"1 44756U 19074AV  21308.60225960  .00583126  00000-0  29902-2 0  9990","TIME_SYSTEM":"UTC","REF_FRAME":"TEME","CLASSIFICATION_TYPE":"U","BSTAR":"0.00299020000000","RA_OF_ASC_NODE":"37.1955","OBJECT_ID":"2019-074AV","ECCENTRICITY":"0.00012700","MEAN_ELEMENT_THEORY":"SGP4","DECAY_DATE":null,"OBJECT_TYPE":"PAYLOAD","GP_ID":"188908948","FILE":"3201464","RCS_SIZE":"LARGE","OBJECT_NAME":"STARLINK-1051","MEAN_MOTION_DDOT":"0.0000000000000","ELEMENT_SET_NO":"999","TLE_LINE2":"2 44756  53.0529  37.1955 0001270  97.8696 262.2469 15.79131137110828","SEMIMAJOR_AXIS":"6711.038","EPOCH":"2021-11-04T14:27:15.229440","ARG_OF_PERICENTER":"97.8696","PERIAPSIS":"332.051","SITE":"AFETR","LAUNCH_DATE":"2019-11-11","MEAN_MOTION":"15.79131137","APOAPSIS":"333.755","COUNTRY_CODE":"US","MEAN_MOTION_DOT":"0.00583126","NORAD_CAT_ID":"44756","MEAN_ANOMALY":"262.2469","INCLINATION":"53.0529","PERIOD":"91.189"},{"INCLINATION":"53.0555","PERIOD":"95.592","COUNTRY_CODE":"US","MEAN_ANOMALY":"282.5337","NORAD_CAT_ID":"44757","MEAN_MOTION_DOT":"0.00001911","MEAN_MOTION":"15.06404157","LAUNCH_DATE":"2019-11-11","APOAPSIS":"548.383","ARG_OF_PERICENTER":"77.5843","EPOCH":"2021-11-04T21:48:41.283360","TLE_LINE2":"2 44757  53.0555 125.4535 0001707  77.5843 282.5337 15.06404157109458","SEMIMAJOR_AXIS":"6925.336","ELEMENT_SET_NO":"999","MEAN_MOTION_DDOT":"0.0000000000000","OBJECT_NAME":"STARLINK-1052","RCS_SIZE":"LARGE","SITE":"AFETR","PERIAPSIS":"546.019","GP_ID":"188952615","OBJECT_TYPE":"PAYLOAD","FILE":"3202404","DECAY_DATE":null,"MEAN_ELEMENT_THEORY":"SGP4","ECCENTRICITY":"0.00017070","OBJECT_ID":"2019-074AW","TIME_SYSTEM":"UTC","REF_FRAME":"TEME","RA_OF_ASC_NODE":"125.4535","BSTAR":"0.00014714000000","CLASSIFICATION_TYPE":"U","REV_AT_EPOCH":"10945","CENTER_NAME":"EARTH","EPHEMERIS_TYPE":"0","TLE_LINE1":"1 44757U 19074AW  21308.90881115  .00001911  00000-0  14714-3 0  9997"},{"MEAN_ANOMALY":"276.4214","NORAD_CAT_ID":"44758","MEAN_MOTION_DOT":"0.00001714","COUNTRY_CODE":"US","PERIOD":"95.593","INCLINATION":"53.0529","SITE":"AFETR","PERIAPSIS":"546.211","ARG_OF_PERICENTER":"83.6943","EPOCH":"2021-11-04T22:00:36.247680","TLE_LINE2":"2 44758  53.0529 145.4169 0001478  83.6943 276.4214 15.06393266109183","SEMIMAJOR_AXIS":"6925.369","MEAN_MOTION_DDOT":"0.0000000000000","ELEMENT_SET_NO":"999","OBJECT_NAME":"STARLINK-1053","RCS_SIZE":"LARGE","APOAPSIS":"548.258","MEAN_MOTION":"15.06393266","LAUNCH_DATE":"2019-11-11","DECAY_DATE":null,"MEAN_ELEMENT_THEORY":"SGP4","ECCENTRICITY":"0.00014780","OBJECT_ID":"2019-074AX","FILE":"3202404","GP_ID":"188953360","OBJECT_TYPE":"PAYLOAD","TLE_LINE1":"1 44758U 19074AX  21308.91708620  .00001714  00000-0  13398-3 0  9996","REV_AT_EPOCH":"10918","CENTER_NAME":"EARTH","EPHEMERIS_TYPE":"0","RA_OF_ASC_NODE":"145.4169","BSTAR":"0.00013398000000","CLASSIFICATION_TYPE":"U","TIME_SYSTEM":"UTC","REF_FRAME":"TEME"},{"EPHEMERIS_TYPE":"0","REV_AT_EPOCH":"10681","CENTER_NAME":"EARTH","TLE_LINE1":"1 44759U 19074AY  21308.84062511  .00000483  00000-0  51344-4 0  9997","TIME_SYSTEM":"UTC","REF_FRAME":"TEME","CLASSIFICATION_TYPE":"U","BSTAR":"0.00005134400000","RA_OF_ASC_NODE":"145.7817","OBJECT_ID":"2019-074AY","ECCENTRICITY":"0.00017160","DECAY_DATE":null,"MEAN_ELEMENT_THEORY":"SGP4","OBJECT_TYPE":"PAYLOAD","GP_ID":"188952108","FILE":"3202404","RCS_SIZE":"LARGE","MEAN_MOTION_DDOT":"0.0000000000000","ELEMENT_SET_NO":"999","OBJECT_NAME":"STARLINK-1054","TLE_LINE2":"2 44759  53.0543 145.7817 0001716  78.0506 282.0675 15.06394067106812","SEMIMAJOR_AXIS":"6925.367","EPOCH":"2021-11-04T20:10:30.009504","ARG_OF_PERICENTER":"78.0506","PERIAPSIS":"546.043","SITE":"AFETR","LAUNCH_DATE":"2019-11-11","MEAN_MOTION":"15.06394067","APOAPSIS":"548.420","COUNTRY_CODE":"US","MEAN_MOTION_DOT":"0.00000483","NORAD_CAT_ID":"44759","MEAN_ANOMALY":"282.0675","INCLINATION":"53.0543","PERIOD":"95.593"},{"TLE_LINE1":"1 44760U 19074AZ  21308.89221823  .00001578  00000-0  12485-3 0  9995","REV_AT_EPOCH":"10918","CENTER_NAME":"EARTH","EPHEMERIS_TYPE":"0","BSTAR":"0.00012485000000","RA_OF_ASC_NODE":"145.5441","CLASSIFICATION_TYPE":"U","TIME_SYSTEM":"UTC","REF_FRAME":"TEME","ECCENTRICITY":"0.00017430","DECAY_DATE":null,"MEAN_ELEMENT_THEORY":"SGP4","OBJECT_ID":"2019-074AZ","FILE":"3202404","OBJECT_TYPE":"PAYLOAD","GP_ID":"188952358","PERIAPSIS":"546.013","SITE":"AFETR","SEMIMAJOR_AXIS":"6925.355","TLE_LINE2":"2 44760  53.0521 145.5441 0001743  80.2890 279.8295 15.06397968109180","EPOCH":"2021-11-04T21:24:47.655072","ARG_OF_PERICENTER":"80.2890","RCS_SIZE":"LARGE","MEAN_MOTION_DDOT":"0.0000000000000","OBJECT_NAME":"STARLINK-1055","ELEMENT_SET_NO":"999","APOAPSIS":"548.427","MEAN_MOTION":"15.06397968","LAUNCH_DATE":"2019-11-11","NORAD_CAT_ID":"44760","MEAN_ANOMALY":"279.8295","MEAN_MOTION_DOT":"0.00001578","COUNTRY_CODE":"US","PERIOD":"95.592","INCLINATION":"53.0521"},{"MEAN_MOTION":"15.06393113","LAUNCH_DATE":"2019-11-11","APOAPSIS":"548.489","ARG_OF_PERICENTER":"83.7470","EPOCH":"2021-11-04T21:40:44.193792","SEMIMAJOR_AXIS":"6925.370","TLE_LINE2":"2 44761  53.0520 145.4935 0001811  83.7470 276.3726 15.06393113109184","OBJECT_NAME":"STARLINK-1056","MEAN_MOTION_DDOT":"0.0000000000000","ELEMENT_SET_NO":"999","RCS_SIZE":"LARGE","SITE":"AFETR","PERIAPSIS":"545.980","INCLINATION":"53.0520","PERIOD":"95.593","COUNTRY_CODE":"US","MEAN_ANOMALY":"276.3726","NORAD_CAT_ID":"44761","MEAN_MOTION_DOT":"0.00001394","TIME_SYSTEM":"UTC","REF_FRAME":"TEME","RA_OF_ASC_NODE":"145.4935","BSTAR":"0.00011247000000","CLASSIFICATION_TYPE":"U","CENTER_NAME":"EARTH","REV_AT_EPOCH":"10918","EPHEMERIS_TYPE":"0","TLE_LINE1":"1 44761U 19074BA  21308.90328928  .00001394  00000-0  11247-3 0  9993","GP_ID":"188953109","OBJECT_TYPE":"PAYLOAD","FILE":"3202404","DECAY_DATE":null,"MEAN_ELEMENT_THEORY":"SGP4","ECCENTRICITY":"0.00018110","OBJECT_ID":"2019-074BA"}];
